*******************************************************************************
Ephemeris / WWW_USER Thu Dec  5 18:37:02 2024 Pasadena, USA      / Horizons    
*******************************************************************************
Target body name: 62412 (2000 SY178)              {source: JPL#44}
Center body name: Earth (399)                     {source: DE441}
Center-site name: Mauna Kea
*******************************************************************************
Start time      : A.D. 2018-Oct-04 04:17:00.0000 UT      
Stop  time      : A.D. 2018-Oct-04 16:04:00.0000 UT      
Step-size       : 1 minutes
*******************************************************************************
Target pole/equ : undefined
Target radii    : 5.187 km                                                     
Center geodetic : 204.5278, 19.8260847, 4.21024   {E-lon(deg),Lat(deg),Alt(km)}
Center cylindric: 204.5278, 6006.35451, 2151.0229 {E-lon(deg),Dxy(km),Dz(km)}
Center pole/equ : ITRF93                          {East-longitude positive}
Center radii    : 6378.137, 6378.137, 6356.752 km {Equator_a, b, pole_c}       
Target primary  : Sun
Vis. interferer : MOON (R_eq= 1737.400) km        {source: DE441}
Rel. light bend : Sun                             {source: DE441}
Rel. lght bnd GM: 1.3271E+11 km^3/s^2                                          
Small-body perts: Yes                             {source: SB441-N16}
Atmos refraction: NO (AIRLESS)
RA format       : HMS
Time format     : CAL 
Calendar mode   : Mixed Julian/Gregorian
RTS-only print  : NO       
EOP file        : eop.241205.p250303                                           
EOP coverage    : DATA-BASED 1962-JAN-20 TO 2024-DEC-05. PREDICTS-> 2025-MAR-02
Units conversion: 1 au= 149597870.700 km, c= 299792.458 km/s, 1 day= 86400.0 s 
Table cut-offs 1: Elevation (-90.0deg=NO ),Airmass (>38.000=NO), Daylight (YES)
Table cut-offs 2: Solar elongation (  0.0,180.0=NO ),Local Hour Angle( 0.0=NO )
Table cut-offs 3: RA/DEC angular rate (     0.0=NO )                           
*******************************************************************************
Initial IAU76/J2000 heliocentric ecliptic osculating elements (au, days, deg.):
  EPOCH=  2458127.5 ! 2018-Jan-09.00 (TDB)         Residual RMS= .2787         
   EC= .08141730682229319  QR= 2.89613208739257    TP= 2458420.6685284483      
   OM= 329.1525583823792   W=  163.0619562799197   IN= 4.73619265468861        
  Equivalent ICRF heliocentric cartesian coordinates (au, au/d):
   X= 8.831945932166756E-01  Y= 2.532168596675914E+00  Z= 1.360803999508301E+00
  VX=-9.867256226021401E-03 VY= 2.254941400948641E-03 VZ= 7.028227572403328E-04
Asteroid physical parameters (km, seconds, rotational period in hours):        
   GM= n.a.                RAD= 5.187              ROTPER= 3.33                
   H= 13.88                G= .150                 B-V= n.a.                   
                           ALBEDO= .065            STYP= n.a.                  
*******************************************************************************
 Date__(UT)__HR:MN     R.A._________(ICRF)_________DEC
******************************************************
$$SOE
 2018-Oct-04 08:23     09 40 03.061876 +15 32 15.57071
 2018-Oct-04 08:24     09 40 03.119716 +15 32 15.26340
 2018-Oct-04 08:25     09 40 03.177555 +15 32 14.95611
 2018-Oct-04 08:26     09 40 03.235393 +15 32 14.64883
 2018-Oct-04 08:27     09 40 03.293229 +15 32 14.34157
 2018-Oct-04 08:28     09 40 03.351064 +15 32 14.03431
 2018-Oct-04 08:29     09 40 03.408898 +15 32 13.72706
 2018-Oct-04 08:30     09 40 03.466731 +15 32 13.41983
 2018-Oct-04 08:31     09 40 03.524562 +15 32 13.11261
 2018-Oct-04 08:32     09 40 03.582392 +15 32 12.80540
 2018-Oct-04 08:33     09 40 03.640221 +15 32 12.49820
 2018-Oct-04 08:34     09 40 03.698048 +15 32 12.19101
 2018-Oct-04 08:35     09 40 03.755874 +15 32 11.88383
 2018-Oct-04 08:36     09 40 03.813699 +15 32 11.57667
 2018-Oct-04 08:37     09 40 03.871523 +15 32 11.26951
 2018-Oct-04 08:38     09 40 03.929345 +15 32 10.96237
 2018-Oct-04 08:39     09 40 03.987166 +15 32 10.65524
 2018-Oct-04 08:40     09 40 04.044985 +15 32 10.34811
 2018-Oct-04 08:41     09 40 04.102803 +15 32 10.04100
 2018-Oct-04 08:42     09 40 04.160619 +15 32 09.73391
 2018-Oct-04 08:43     09 40 04.218434 +15 32 09.42682
 2018-Oct-04 08:44     09 40 04.276248 +15 32 09.11974
 2018-Oct-04 08:45     09 40 04.334060 +15 32 08.81268
 2018-Oct-04 08:46     09 40 04.391871 +15 32 08.50562
 2018-Oct-04 08:47     09 40 04.449680 +15 32 08.19858
 2018-Oct-04 08:48     09 40 04.507488 +15 32 07.89155
 2018-Oct-04 08:49     09 40 04.565294 +15 32 07.58453
 2018-Oct-04 08:50     09 40 04.623099 +15 32 07.27752
 2018-Oct-04 08:51     09 40 04.680902 +15 32 06.97052
 2018-Oct-04 08:52     09 40 04.738704 +15 32 06.66353
 2018-Oct-04 08:53     09 40 04.796504 +15 32 06.35655
 2018-Oct-04 08:54     09 40 04.854303 +15 32 06.04958
 2018-Oct-04 08:55     09 40 04.912100 +15 32 05.74263
 2018-Oct-04 08:56     09 40 04.969895 +15 32 05.43568
 2018-Oct-04 08:57     09 40 05.027689 +15 32 05.12875
 2018-Oct-04 08:58     09 40 05.085481 +15 32 04.82183
 2018-Oct-04 08:59     09 40 05.143271 +15 32 04.51491
 2018-Oct-04 09:00     09 40 05.201060 +15 32 04.20801
 2018-Oct-04 09:01     09 40 05.258848 +15 32 03.90112
 2018-Oct-04 09:02     09 40 05.316633 +15 32 03.59424
 2018-Oct-04 09:03     09 40 05.374417 +15 32 03.28737
 2018-Oct-04 09:04     09 40 05.432199 +15 32 02.98051
 2018-Oct-04 09:05     09 40 05.489980 +15 32 02.67366
 2018-Oct-04 09:06     09 40 05.547759 +15 32 02.36683
 2018-Oct-04 09:07     09 40 05.605536 +15 32 02.06000
 2018-Oct-04 09:08     09 40 05.663311 +15 32 01.75318
 2018-Oct-04 09:09     09 40 05.721085 +15 32 01.44638
 2018-Oct-04 09:10     09 40 05.778856 +15 32 01.13958
 2018-Oct-04 09:11     09 40 05.836627 +15 32 00.83280
 2018-Oct-04 09:12     09 40 05.894395 +15 32 00.52602
 2018-Oct-04 09:13     09 40 05.952161 +15 32 00.21926
 2018-Oct-04 09:14     09 40 06.009926 +15 31 59.91250
 2018-Oct-04 09:15     09 40 06.067689 +15 31 59.60576
 2018-Oct-04 09:16     09 40 06.125450 +15 31 59.29903
 2018-Oct-04 09:17     09 40 06.183209 +15 31 58.99230
 2018-Oct-04 09:18     09 40 06.240966 +15 31 58.68559
 2018-Oct-04 09:19     09 40 06.298722 +15 31 58.37889
 2018-Oct-04 09:20     09 40 06.356475 +15 31 58.07220
 2018-Oct-04 09:21     09 40 06.414227 +15 31 57.76551
 2018-Oct-04 09:22     09 40 06.471977 +15 31 57.45884
 2018-Oct-04 09:23     09 40 06.529724 +15 31 57.15218
 2018-Oct-04 09:24     09 40 06.587470 +15 31 56.84553
 2018-Oct-04 09:25     09 40 06.645214 +15 31 56.53889
 2018-Oct-04 09:26     09 40 06.702956 +15 31 56.23225
 2018-Oct-04 09:27     09 40 06.760696 +15 31 55.92563
 2018-Oct-04 09:28     09 40 06.818434 +15 31 55.61902
 2018-Oct-04 09:29     09 40 06.876170 +15 31 55.31242
 2018-Oct-04 09:30     09 40 06.933905 +15 31 55.00583
 2018-Oct-04 09:31     09 40 06.991637 +15 31 54.69925
 2018-Oct-04 09:32     09 40 07.049367 +15 31 54.39267
 2018-Oct-04 09:33     09 40 07.107095 +15 31 54.08611
 2018-Oct-04 09:34     09 40 07.164821 +15 31 53.77956
 2018-Oct-04 09:35     09 40 07.222545 +15 31 53.47302
 2018-Oct-04 09:36     09 40 07.280267 +15 31 53.16648
 2018-Oct-04 09:37     09 40 07.337986 +15 31 52.85996
 2018-Oct-04 09:38     09 40 07.395704 +15 31 52.55345
 2018-Oct-04 09:39     09 40 07.453420 +15 31 52.24694
 2018-Oct-04 09:40     09 40 07.511133 +15 31 51.94045
 2018-Oct-04 09:41     09 40 07.568845 +15 31 51.63396
 2018-Oct-04 09:42     09 40 07.626554 +15 31 51.32749
 2018-Oct-04 09:43     09 40 07.684261 +15 31 51.02102
 2018-Oct-04 09:44     09 40 07.741966 +15 31 50.71457
 2018-Oct-04 09:45     09 40 07.799669 +15 31 50.40812
 2018-Oct-04 09:46     09 40 07.857369 +15 31 50.10168
 2018-Oct-04 09:47     09 40 07.915068 +15 31 49.79525
 2018-Oct-04 09:48     09 40 07.972764 +15 31 49.48884
 2018-Oct-04 09:49     09 40 08.030458 +15 31 49.18243
 2018-Oct-04 09:50     09 40 08.088150 +15 31 48.87603
 2018-Oct-04 09:51     09 40 08.145839 +15 31 48.56964
 2018-Oct-04 09:52     09 40 08.203527 +15 31 48.26325
 2018-Oct-04 09:53     09 40 08.261212 +15 31 47.95688
 2018-Oct-04 09:54     09 40 08.318894 +15 31 47.65052
 2018-Oct-04 09:55     09 40 08.376575 +15 31 47.34416
 2018-Oct-04 09:56     09 40 08.434253 +15 31 47.03782
 2018-Oct-04 09:57     09 40 08.491929 +15 31 46.73148
 2018-Oct-04 09:58     09 40 08.549603 +15 31 46.42516
 2018-Oct-04 09:59     09 40 08.607274 +15 31 46.11884
 2018-Oct-04 10:00     09 40 08.664943 +15 31 45.81253
 2018-Oct-04 10:01     09 40 08.722610 +15 31 45.50623
 2018-Oct-04 10:02     09 40 08.780274 +15 31 45.19994
 2018-Oct-04 10:03     09 40 08.837936 +15 31 44.89365
 2018-Oct-04 10:04     09 40 08.895596 +15 31 44.58738
 2018-Oct-04 10:05     09 40 08.953253 +15 31 44.28111
 2018-Oct-04 10:06     09 40 09.010908 +15 31 43.97486
 2018-Oct-04 10:07     09 40 09.068561 +15 31 43.66861
 2018-Oct-04 10:08     09 40 09.126211 +15 31 43.36237
 2018-Oct-04 10:09     09 40 09.183858 +15 31 43.05614
 2018-Oct-04 10:10     09 40 09.241504 +15 31 42.74992
 2018-Oct-04 10:11     09 40 09.299147 +15 31 42.44370
 2018-Oct-04 10:12     09 40 09.356787 +15 31 42.13750
 2018-Oct-04 10:13     09 40 09.414425 +15 31 41.83130
 2018-Oct-04 10:14     09 40 09.472060 +15 31 41.52511
 2018-Oct-04 10:15     09 40 09.529693 +15 31 41.21893
 2018-Oct-04 10:16     09 40 09.587324 +15 31 40.91276
 2018-Oct-04 10:17     09 40 09.644952 +15 31 40.60660
 2018-Oct-04 10:18     09 40 09.702577 +15 31 40.30044
 2018-Oct-04 10:19     09 40 09.760200 +15 31 39.99430
 2018-Oct-04 10:20     09 40 09.817821 +15 31 39.68816
 2018-Oct-04 10:21     09 40 09.875439 +15 31 39.38203
 2018-Oct-04 10:22     09 40 09.933054 +15 31 39.07591
 2018-Oct-04 10:23     09 40 09.990667 +15 31 38.76979
 2018-Oct-04 10:24     09 40 10.048277 +15 31 38.46369
 2018-Oct-04 10:25     09 40 10.105885 +15 31 38.15759
